CCSDS_OMM_VERS = 2.0
CREATION_DATE  = 
ORIGINATOR     = 

OBJECT_NAME    = AQUA
OBJECT_ID      = 2002-022A
CENTER_NAME    = EARTH
REF_FRAME      = TEME
TIME_SYSTEM    = UTC
MEAN_ELEMENT_THEORY = SGP/SGP4

EPOCH          = 2026-03-10T12:21:47.765952
MEAN_MOTION    = 14.61979620
ECCENTRICITY   = .0000557
INCLINATION    = 98.4176
RA_OF_ASC_NODE = 36.8951
ARG_OF_PERICENTER = 83.0515
MEAN_ANOMALY   = 26.9141

EPHEMERIS_TYPE = 0
CLASSIFICATION_TYPE = U
NORAD_CAT_ID   = 27424
ELEMENT_SET_NO = 999
REV_AT_EPOCH   = 26885
BSTAR          = .2855E-3
MEAN_MOTION_DOT = .1382E-4
MEAN_MOTION_DDOT = 0

CCSDS_OMM_VERS = 2.0
CREATION_DATE  = 
ORIGINATOR     = 

OBJECT_NAME    = CZ-4B R/B
OBJECT_ID      = 2002-024C
CENTER_NAME    = EARTH
REF_FRAME      = TEME
TIME_SYSTEM    = UTC
MEAN_ELEMENT_THEORY = SGP/SGP4

EPOCH          = 2026-03-10T03:16:03.163008
MEAN_MOTION    = 14.14547639
ECCENTRICITY   = .00504624
INCLINATION    = 98.8838
RA_OF_ASC_NODE = 122.5407
ARG_OF_PERICENTER = 22.9379
MEAN_ANOMALY   = 1.3520

EPHEMERIS_TYPE = 0
CLASSIFICATION_TYPE = U
NORAD_CAT_ID   = 27432
ELEMENT_SET_NO = 999
REV_AT_EPOCH   = 22930
BSTAR          = .423045E-4
MEAN_MOTION_DOT = .38E-6
MEAN_MOTION_DDOT = 0

CCSDS_OMM_VERS = 2.0
CREATION_DATE  = 
ORIGINATOR     = 

OBJECT_NAME    = MIDORI II (ADEOS-II)
OBJECT_ID      = 2002-056A
CENTER_NAME    = EARTH
REF_FRAME      = TEME
TIME_SYSTEM    = UTC
MEAN_ELEMENT_THEORY = SGP/SGP4

EPOCH          = 2026-03-10T12:05:24.337824
MEAN_MOTION    = 14.29285941
ECCENTRICITY   = .0001541
INCLINATION    = 98.7769
RA_OF_ASC_NODE = 27.9869
ARG_OF_PERICENTER = 41.0181
MEAN_ANOMALY   = 319.1116

EPHEMERIS_TYPE = 0
CLASSIFICATION_TYPE = U
NORAD_CAT_ID   = 27597
ELEMENT_SET_NO = 999
REV_AT_EPOCH   = 21041
BSTAR          = .17987E-3
MEAN_MOTION_DOT = .412E-5
MEAN_MOTION_DDOT = 0

CCSDS_OMM_VERS = 2.0
CREATION_DATE  = 
ORIGINATOR     = 

OBJECT_NAME    = H-2A R/B
OBJECT_ID      = 2002-056E
CENTER_NAME    = EARTH
REF_FRAME      = TEME
TIME_SYSTEM    = UTC
MEAN_ELEMENT_THEORY = SGP/SGP4

EPOCH          = 2026-03-10T11:37:34.349376
MEAN_MOTION    = 14.33761413
ECCENTRICITY   = .0070546
INCLINATION    = 98.3204
RA_OF_ASC_NODE = 29.8197
ARG_OF_PERICENTER = 158.3334
MEAN_ANOMALY   = 311.4788

EPHEMERIS_TYPE = 0
CLASSIFICATION_TYPE = U
NORAD_CAT_ID   = 27601
ELEMENT_SET_NO = 999
REV_AT_EPOCH   = 21422
BSTAR          = .13517E-3
MEAN_MOTION_DOT = .345E-5
MEAN_MOTION_DDOT = 0

CCSDS_OMM_VERS = 2.0
CREATION_DATE  = 
ORIGINATOR     = 

OBJECT_NAME    = CZ-4B R/B
OBJECT_ID      = 2003-049C
CENTER_NAME    = EARTH
REF_FRAME      = TEME
TIME_SYSTEM    = UTC
MEAN_ELEMENT_THEORY = SGP/SGP4

EPOCH          = 2026-03-10T11:36:40.815936
MEAN_MOTION    = 14.55021095
ECCENTRICITY   = .0047289
INCLINATION    = 98.6880
RA_OF_ASC_NODE = 64.4197
ARG_OF_PERICENTER = 228.4356
MEAN_ANOMALY   = 131.2781

EPHEMERIS_TYPE = 0
CLASSIFICATION_TYPE = U
NORAD_CAT_ID   = 28059
ELEMENT_SET_NO = 999
REV_AT_EPOCH   = 18671
BSTAR          = .12291E-3
MEAN_MOTION_DOT = .485E-5
MEAN_MOTION_DDOT = 0

CCSDS_OMM_VERS = 2.0
CREATION_DATE  = 
ORIGINATOR     = 

OBJECT_NAME    = CZ-2C R/B
OBJECT_ID      = 2004-012C
CENTER_NAME    = EARTH
REF_FRAME      = TEME
TIME_SYSTEM    = UTC
MEAN_ELEMENT_THEORY = SGP/SGP4

EPOCH          = 2026-03-10T10:34:27.825312
MEAN_MOTION    = 15.64603996
ECCENTRICITY   = .0012919
INCLINATION    = 97.7221
RA_OF_ASC_NODE = 134.8041
ARG_OF_PERICENTER = 306.5896
MEAN_ANOMALY   = 53.4173

EPHEMERIS_TYPE = 0
CLASSIFICATION_TYPE = U
NORAD_CAT_ID   = 28222
ELEMENT_SET_NO = 999
REV_AT_EPOCH   = 20439
BSTAR          = .71185E-3
MEAN_MOTION_DOT = .69335E-3
MEAN_MOTION_DDOT = 0

CCSDS_OMM_VERS = 2.0
CREATION_DATE  = 
ORIGINATOR     = 

OBJECT_NAME    = SL-16 R/B
OBJECT_ID      = 2004-021B
CENTER_NAME    = EARTH
REF_FRAME      = TEME
TIME_SYSTEM    = UTC
MEAN_ELEMENT_THEORY = SGP/SGP4

EPOCH          = 2026-03-10T12:25:29.115840
MEAN_MOTION    = 14.14597679
ECCENTRICITY   = .0004101
INCLINATION    = 70.9996
RA_OF_ASC_NODE = 230.7547
ARG_OF_PERICENTER = 8.1324
MEAN_ANOMALY   = 351.9864

EPHEMERIS_TYPE = 0
CLASSIFICATION_TYPE = U
NORAD_CAT_ID   = 28353
ELEMENT_SET_NO = 999
REV_AT_EPOCH   = 12295
BSTAR          = -.10617E-3
MEAN_MOTION_DOT = -.252E-5
MEAN_MOTION_DDOT = 0

CCSDS_OMM_VERS = 2.0
CREATION_DATE  = 
ORIGINATOR     = 

OBJECT_NAME    = CZ-4B R/B
OBJECT_ID      = 2004-035C
CENTER_NAME    = EARTH
REF_FRAME      = TEME
TIME_SYSTEM    = UTC
MEAN_ELEMENT_THEORY = SGP/SGP4

EPOCH          = 2026-03-10T02:31:59.569248
MEAN_MOTION    = 15.29073214
ECCENTRICITY   = .00309757
INCLINATION    = 97.3501
RA_OF_ASC_NODE = 103.3428
ARG_OF_PERICENTER = 330.0330
MEAN_ANOMALY   = 29.9136

EPHEMERIS_TYPE = 0
CLASSIFICATION_TYPE = U
NORAD_CAT_ID   = 28415
ELEMENT_SET_NO = 999
REV_AT_EPOCH   = 17997
BSTAR          = .34465502E-3
MEAN_MOTION_DOT = .9794E-4
MEAN_MOTION_DDOT = 0

CCSDS_OMM_VERS = 2.0
CREATION_DATE  = 
ORIGINATOR     = 

OBJECT_NAME    = CZ-2C R/B
OBJECT_ID      = 2004-046B
CENTER_NAME    = EARTH
REF_FRAME      = TEME
TIME_SYSTEM    = UTC
MEAN_ELEMENT_THEORY = SGP/SGP4

EPOCH          = 2026-03-10T07:50:52.714464
MEAN_MOTION    = 14.26992327
ECCENTRICITY   = .0139909
INCLINATION    = 98.1982
RA_OF_ASC_NODE = 344.2713
ARG_OF_PERICENTER = 152.5682
MEAN_ANOMALY   = 208.2976

EPHEMERIS_TYPE = 0
CLASSIFICATION_TYPE = U
NORAD_CAT_ID   = 28480
ELEMENT_SET_NO = 999
REV_AT_EPOCH   = 10859
BSTAR          = .71691E-4
MEAN_MOTION_DOT = .153E-5
MEAN_MOTION_DDOT = 0

CCSDS_OMM_VERS = 2.0
CREATION_DATE  = 
ORIGINATOR     = 

OBJECT_NAME    = ARIANE 5 R/B
OBJECT_ID      = 2004-049H
CENTER_NAME    = EARTH
REF_FRAME      = TEME
TIME_SYSTEM    = UTC
MEAN_ELEMENT_THEORY = SGP/SGP4

EPOCH          = 2026-03-10T10:35:09.456288
MEAN_MOTION    = 14.85267584
ECCENTRICITY   = .008388
INCLINATION    = 98.2628
RA_OF_ASC_NODE = 237.9263
ARG_OF_PERICENTER = 349.4760
MEAN_ANOMALY   = 10.4695

EPHEMERIS_TYPE = 0
CLASSIFICATION_TYPE = U
NORAD_CAT_ID   = 28499
ELEMENT_SET_NO = 999
REV_AT_EPOCH   = 14590
BSTAR          = .11688E-3
MEAN_MOTION_DOT = .1003E-4
MEAN_MOTION_DDOT = 0

CCSDS_OMM_VERS = 2.0
CREATION_DATE  = 
ORIGINATOR     = 

OBJECT_NAME    = CZ-2D R/B
OBJECT_ID      = 2005-024B
CENTER_NAME    = EARTH
REF_FRAME      = TEME
TIME_SYSTEM    = UTC
MEAN_ELEMENT_THEORY = SGP/SGP4

EPOCH          = 2026-03-10T11:29:48.707808
MEAN_MOTION    = 15.60229062
ECCENTRICITY   = .0005741
INCLINATION    = 97.3605
RA_OF_ASC_NODE = 84.6545
ARG_OF_PERICENTER = 44.1911
MEAN_ANOMALY   = 315.9803

EPHEMERIS_TYPE = 0
CLASSIFICATION_TYPE = U
NORAD_CAT_ID   = 28738
ELEMENT_SET_NO = 999
REV_AT_EPOCH   = 13990
BSTAR          = .63901E-3
MEAN_MOTION_DOT = .52238E-3
MEAN_MOTION_DDOT = 0

CCSDS_OMM_VERS = 2.0
CREATION_DATE  = 
ORIGINATOR     = 

OBJECT_NAME    = ALOS (DAICHI)
OBJECT_ID      = 2006-002A
CENTER_NAME    = EARTH
REF_FRAME      = TEME
TIME_SYSTEM    = UTC
MEAN_ELEMENT_THEORY = SGP/SGP4

EPOCH          = 2026-03-10T10:56:39.240672
MEAN_MOTION    = 14.69813700
ECCENTRICITY   = .0000873
INCLINATION    = 98.1219
RA_OF_ASC_NODE = 25.4076
ARG_OF_PERICENTER = 56.3659
MEAN_ANOMALY   = 303.7630

EPHEMERIS_TYPE = 0
CLASSIFICATION_TYPE = U
NORAD_CAT_ID   = 28931
ELEMENT_SET_NO = 999
REV_AT_EPOCH   = 7359
BSTAR          = .3193E-3
MEAN_MOTION_DOT = .1857E-4
MEAN_MOTION_DDOT = 0

